
# Worst residual: 116.06 km
# MJD 59392.000000 (2021 Jun 27  0:00)
ZTF0KbQ = ZTF0KeL
1 88865U 00000ABI 21178.49919926  .00000000  00000-0  00000-0 0 11750
2 88865 023.2466 046.2913 2883166 327.1483 156.2070 01.01532317    01

# Worst residual: 114.15 km
# MJD 59393.000000 (2021 Jun 28  0:00)
ZTF0KbQ = ZTF0KeL
1 88865U 00000ABI 21179.49919926  .00000000  00000-0  00000-0 0 11751
2 88865 023.2481 046.2678 2818940 327.2843 161.0958 01.01507481    08

# Worst residual: 102.19 km
# MJD 59394.000000 (2021 Jun 29  0:00)
ZTF0KbQ = ZTF0KeL
1 88865U 00000ABI 21180.49919926  .00000000  00000-0  00000-0 0 11753
2 88865 023.2564 046.2295 2752841 327.4151 165.9333 01.01472069    09

# Worst residual: 106.00 km
# MJD 59395.000000 (2021 Jun 30  0:00)
ZTF0KbQ = ZTF0KeL
1 88865U 00000ABI 21181.49919926  .00000000  00000-0  00000-0 0 11754
2 88865 023.2606 046.2193 2688244 327.4886 170.7586 01.01447800    02

# Worst residual: 91.43 km
# MJD 59396.000000 (2021 Jul  1  0:00)
ZTF0KbQ = ZTF0KeL
1 88865U 00000ABI 21182.49919926  .00000000  00000-0  00000-0 0 11755
2 88865 023.2576 046.2110 2623291 327.5483 175.5250 01.01416323    09

# Worst residual: 88.20 km
# MJD 59397.000000 (2021 Jul  2  0:00)
ZTF0KbQ = ZTF0KeL
1 88865U 00000ABI 21183.49919926  .00000000  00000-0  00000-0 0 11756
2 88865 023.2759 046.1881 2556530 327.6039 180.2543 01.01386720    00

# Worst residual: 86.01 km
# MJD 59398.000000 (2021 Jul  3  0:00)
ZTF0KbQ = ZTF0KeL
1 88865U 00000ABI 21184.49919926  .00000000  00000-0  00000-0 0 11757
2 88865 023.2745 046.1559 2490258 327.6169 184.9771 01.01355477    04

# Worst residual: 92.66 km
# MJD 59399.000000 (2021 Jul  4  0:00)
ZTF0KbQ = ZTF0KeL
1 88865U 00000ABI 21185.49919926  .00000000  00000-0  00000-0 0 11758
2 88865 023.2780 046.1367 2423937 327.6043 189.6539 01.01324629    00

# Worst residual: 100.23 km
# MJD 59400.000000 (2021 Jul  5  0:00)
ZTF0KbQ = ZTF0KeL
1 88865U 00000ABI 21186.49919926  .00000000  00000-0  00000-0 0 11759
2 88865 023.2811 046.1183 2357519 327.5602 194.3048 01.01294039    02

# Worst residual: 102.29 km
# MJD 59401.000000 (2021 Jul  6  0:00)
ZTF0KbQ = ZTF0KeL
1 88865U 00000ABI 21187.49919926  .00000000  00000-0  00000-0 0 11750
2 88865 023.2833 046.0981 2290769 327.4951 198.9158 01.01264320    02

# Worst residual: 109.98 km
# MJD 59402.000000 (2021 Jul  7  0:00)
ZTF0KbQ = ZTF0KeL
1 88865U 00000ABI 21188.49919926  .00000000  00000-0  00000-0 0 11751
2 88865 023.2848 046.1168 2224731 327.3421 203.5371 01.01236571    00

# Worst residual: 111.90 km
# MJD 59403.000000 (2021 Jul  8  0:00)
ZTF0KbQ = ZTF0KeL
1 88865U 00000ABI 21189.49919926  .00000000  00000-0  00000-0 0 11752
2 88865 023.2857 046.0789 2158849 327.2071 208.1274 01.01210050    01

# Worst residual: 120.26 km
# MJD 59404.000000 (2021 Jul  9  0:00)
ZTF0KbQ = ZTF0KeL
1 88865U 00000ABI 21190.49919926  .00000000  00000-0  00000-0 0 11754
2 88865 023.2854 046.0597 2092943 327.0093 212.7205 01.01176569    00

# Worst residual: 120.29 km
# MJD 59405.000000 (2021 Jul 10  0:00)
ZTF0KbQ = ZTF0KeL
1 88865U 00000ABI 21191.49919926  .00000000  00000-0  00000-0 0 11755
2 88865 023.2977 046.0499 2026864 326.7337 217.3310 01.01157779    03

# Worst residual: 122.21 km
# MJD 59406.000000 (2021 Jul 11  0:00)
ZTF0KbQ = ZTF0KeL
1 88865U 00000ABI 21192.49919926  .00000000  00000-0  00000-0 0 11756
2 88865 023.2938 046.0226 1960174 326.4772 221.8767 01.01121265    05

# Worst residual: 129.20 km
# MJD 59407.000000 (2021 Jul 12  0:00)
ZTF0KbQ = ZTF0KeL
1 88865U 00000ABI 21193.49919926  .00000000  00000-0  00000-0 0 11757
2 88865 023.2930 046.0133 1894661 326.0949 226.4993 01.01096558    01

# Worst residual: 130.03 km
# MJD 59408.000000 (2021 Jul 13  0:00)
ZTF0KbQ = ZTF0KeL
1 88865U 00000ABI 21194.49919926  .00000000  00000-0  00000-0 0 11758
2 88865 023.2936 046.0011 1829532 325.6776 231.1051 01.01071245    04

# Worst residual: 125.55 km
# MJD 59409.000000 (2021 Jul 14  0:00)
ZTF0KbQ = ZTF0KeL
1 88865U 00000ABI 21195.49919926  .00000000  00000-0  00000-0 0 11759
2 88865 023.2892 045.9698 1765161 325.2347 235.7100 01.01049085    03

# Worst residual: 124.24 km
# MJD 59410.000000 (2021 Jul 15  0:00)
ZTF0KbQ = ZTF0KeL
1 88865U 00000ABI 21196.49919926  .00000000  00000-0  00000-0 0 11750
2 88865 023.2915 045.9617 1700730 324.6830 240.3504 01.01025182    03

# Worst residual: 128.49 km
# MJD 59411.000000 (2021 Jul 16  0:00)
ZTF0KbQ = ZTF0KeL
1 88865U 00000ABI 21197.49919926  .00000000  00000-0  00000-0 0 11751
2 88865 023.2946 045.9553 1637030 324.0237 245.0674 01.00997031    03

# Worst residual: 127.79 km
# MJD 59412.000000 (2021 Jul 17  0:00)
ZTF0KbQ = ZTF0KeL
1 88865U 00000ABI 21198.49919926  .00000000  00000-0  00000-0 0 11752
2 88865 023.2950 045.9730 1572632 323.2690 249.8058 01.00982833    07

# Worst residual: 126.16 km
# MJD 59413.000000 (2021 Jul 18  0:00)
ZTF0KbQ = ZTF0KeL
1 88865U 00000ABI 21199.49919926  .00000000  00000-0  00000-0 0 11753
2 88865 023.2945 045.9493 1510379 322.4522 254.6169 01.00958907    04

# Worst residual: 123.84 km
# MJD 59414.000000 (2021 Jul 19  0:00)
ZTF0KbQ = ZTF0KeL
1 88865U 00000ABI 21200.49919926  .00000000  00000-0  00000-0 0 11756
2 88865 023.2945 045.9412 1448308 321.5108 259.4966 01.00939836    05

# Worst residual: 117.84 km
# MJD 59415.000000 (2021 Jul 20  0:00)
ZTF0KbQ = ZTF0KeL
1 88865U 00000ABI 21201.49919926  .00000000  00000-0  00000-0 0 11757
2 88865 023.2950 045.9231 1387869 320.4622 264.4584 01.00922230    05

# Worst residual: 115.77 km
# MJD 59416.000000 (2021 Jul 21  0:00)
ZTF0KbQ = ZTF0KeL
1 88865U 00000ABI 21202.49919926  .00000000  00000-0  00000-0 0 11758
2 88865 023.2943 045.9155 1326796 319.2596 269.5272 01.00905909    04

# Worst residual: 113.10 km
# MJD 59417.000000 (2021 Jul 22  0:00)
ZTF0KbQ = ZTF0KeL
1 88865U 00000ABI 21203.49919926  .00000000  00000-0  00000-0 0 11759
2 88865 023.2934 045.9211 1267955 317.8521 274.7693 01.00890171    09

# Worst residual: 102.93 km
# MJD 59418.000000 (2021 Jul 23  0:00)
ZTF0KbQ = ZTF0KeL
1 88865U 00000ABI 21204.49919926  .00000000  00000-0  00000-0 0 11750
2 88865 023.2902 045.9124 1210997 316.3615 280.0772 01.00885096    07

# Worst residual: 100.93 km
# MJD 59419.000000 (2021 Jul 24  0:00)
ZTF0KbQ = ZTF0KeL
1 88865U 00000ABI 21205.49919926  .00000000  00000-0  00000-0 0 11751
2 88865 023.2915 045.8904 1154226 314.5822 285.6549 01.00858899    02

# Worst residual: 93.98 km
# MJD 59420.000000 (2021 Jul 25  0:00)
ZTF0KbQ = ZTF0KeL
1 88865U 00000ABI 21206.49919926  .00000000  00000-0  00000-0 0 11752
2 88865 023.2917 045.9181 1100737 312.5993 291.3704 01.00850733    03

# Worst residual: 89.80 km
# MJD 59421.000000 (2021 Jul 26  0:00)
ZTF0KbQ = ZTF0KeL
1 88865U 00000ABI 21207.49919926  .00000000  00000-0  00000-0 0 11753
2 88865 023.2856 045.9105 1049202 310.3835 297.3307 01.00844239    00
